NORAD_CAT_ID,OBJECT_NAME,OBJECT_TYPE,EPOCH,MEAN_MOTION,ECCENTRICITY,INCLINATION,RA_OF_ASC_NODE,ARG_OF_PERICENTER,MEAN_ANOMALY,BSTAR,MEAN_MOTION_DOT,MEAN_MOTION_DDOT,TLE_LINE0,TLE_LINE1,TLE_LINE2,SEMIMAJOR_AXIS,PERIOD,APOGEE,PERIGEE,DECAYED
51999.0,STARLINK-3667,PAYLOAD,2022-08-25 14:00:01,15.08851646,0.0001289,53.2162,59.6124,81.2153,298.3508,-0.00069631,-0.00011356,0.0,0 STARLINK-3667,1 51999U 22025AV  22237.58334491 -.00011356  00000-0 -69631-3 0  9993,2 51999  53.2162  59.6124 0001289  81.2153 298.3508 15.08851646  1304,6917.845,95.437,540.602,538.818,0.0
51999.0,STARLINK-3667,PAYLOAD,2022-08-25 22:00:00,15.08821506,0.0001353,53.2162,58.1175,70.8623,320.3112,0.0025428,0.00040392,0.0,0 STARLINK-3667,1 51999U 22025AV  22237.91667824  .00040392  00000-0  25428-2 0  9994,2 51999  53.2162  58.1175 0001353  70.8623 320.3112 15.08821506 27411,6917.937,95.439,540.738,538.866,0.0
51999.0,STARLINK-3667,PAYLOAD,2022-08-26 12:00:00,15.08845794,0.0001294,53.2166,55.4965,82.4072,239.0583,0.0012905,0.00020313,0.0,0 STARLINK-3667,1 51999U 22025AV  22238.50001157  .00020313  00000-0  12905-2 0  9998,2 51999  53.2166  55.4965 0001294  82.4072 239.0583 15.08845794 27506,6917.863,95.437,540.623,538.8330000000002,0.0
51999.0,STARLINK-3667,PAYLOAD,2022-08-26 14:00:01,15.0886482,0.0001302,53.2166,55.1229,80.0115,334.4136,-0.0010715,-0.00017312,0.0,0 STARLINK-3667,1 51999U 22025AV  22238.58335648 -.00017312  00000-0 -10715-2 0  9995,2 51999  53.2166  55.1229 0001302  80.0115 334.4136 15.08864820  1303,6917.805,95.436,540.57,538.769,0.0
51999.0,STARLINK-3667,PAYLOAD,2022-08-26 22:00:00,15.08838495,0.0001375,53.2166,53.6279,70.3421,355.64,0.0014222,0.00022418,0.0,0 STARLINK-3667,1 51999U 22025AV  22238.91667824  .00022418  00000-0  14222-2 0  9994,2 51999  53.2166  53.6279 0001375  70.3421 355.6400 15.08838495  1301,6917.885,95.438,540.701,538.799,0.0
51999.0,STARLINK-3667,PAYLOAD,2022-08-27 14:00:01,15.08849695,0.0001403,53.2169,50.6336,81.1602,8.0135,-0.0014215,-0.00022846,0.0,0 STARLINK-3667,1 51999U 22025AV  22239.58334491 -.00022846  00000-0 -14215-2 0  9998,2 51999  53.2169  50.6336 0001403  81.1602   8.0135 15.08849695  1306,6917.851,95.437,540.686,538.745,0.0
51999.0,STARLINK-3667,PAYLOAD,2022-08-27 22:00:00,15.08816615,0.0001412,53.2167,49.1385,71.7936,28.9858,0.0030304,0.0004823999999999,0.0,0 STARLINK-3667,1 51999U 22025AV  22239.91667824  .00048240  00000-0  30304-2 0  9995,2 51999  53.2167  49.1385 0001412  71.7936  28.9858 15.08816615  1305,6917.9519999999975,95.439,540.794,538.84,0.0
51999.0,STARLINK-3667,PAYLOAD,2022-08-28 12:00:00,15.08819203,0.0001496999999999,53.2171,46.5181,85.2256,305.8172,0.00040904,6.224e-05,0.0,0 STARLINK-3667,1 51999U 22025AV  22240.50001157  .00006224  00000-0  40904-3 0  9997,2 51999  53.2171  46.5181 0001497  85.2256 305.8172 15.08819203 27808,6917.944,95.439,540.845,538.773,0.0
51999.0,STARLINK-3667,PAYLOAD,2022-08-28 14:00:01,15.08833001,0.0001503,53.2171,46.1445,82.9117,41.0205,-0.0015984,-0.00025632,0.0,0 STARLINK-3667,1 51999U 22025AV  22240.58334491 -.00025632  00000-0 -15984-2 0  9990,2 51999  53.2171  46.1445 0001503  82.9117  41.0205 15.08833001  1300,6917.901999999999,95.438,540.807,538.727,0.0
51999.0,STARLINK-3667,PAYLOAD,2022-08-28 22:00:00,15.08798813,0.0001496999999999,53.2167,44.6493,74.1214,61.394,0.0029723,0.0004728,0.0,0 STARLINK-3667,1 51999U 22025AV  22240.91667824  .00047280  00000-0  29723-2 0  9993,2 51999  53.2167  44.6493 0001497  74.1214  61.3940 15.08798813  1306,6918.005999999999,95.44,540.9069999999998,538.836,0.0
51999.0,STARLINK-3667,PAYLOAD,2022-08-29 14:00:01,15.08844558,0.0001475,53.217,41.6556,83.883,74.7696,-0.0017225,-0.000276,0.0,0 STARLINK-3667,1 51999U 22025AV  22241.58334491 -.00027600  00000-0 -17225-2 0  9998,2 51999  53.2170  41.6556 0001475  83.8830  74.7696 15.08844558  1308,6917.866,95.437,540.752,538.711,0.0
51999.0,STARLINK-3667,PAYLOAD,2022-08-29 22:00:00,15.08812691,0.000147,53.2166,40.1603,75.3084,94.9384,0.0027500999999999,0.00043719,0.0,0 STARLINK-3667,1 51999U 22025AV  22241.91667824  .00043719  00000-0  27501-2 0  9999,2 51999  53.2166  40.1603 0001470  75.3084  94.9384 15.08812691 28021,6917.964,95.439,540.846,538.812,0.0
51999.0,STARLINK-3667,PAYLOAD,2022-08-30 14:00:01,15.08855129,0.0001474,53.2168,37.1668,83.9722,109.4427,-0.0016532,-0.00026513,0.0,0 STARLINK-3667,1 51999U 22025AV  22242.58334491 -.00026513  00000-0 -16532-2 0  9991,2 51999  53.2168  37.1668 0001474  83.9722 109.4427 15.08855129 28122,6917.834,95.437,540.719,538.679,0.0
51999.0,STARLINK-3667,PAYLOAD,2022-08-30 22:00:00,15.08829255,0.0001460999999999,53.2165,35.6713,75.145,129.877,0.0023616,0.00037486,0.0,0 STARLINK-3667,1 51999U 22025AV  22242.91667824  .00037486  00000-0  23616-2 0  9997,2 51999  53.2165  35.6713 0001461  75.1450 129.8770 15.08829255  1309,6917.913000000001,95.438,540.789,538.768,0.0
51999.0,STARLINK-3667,PAYLOAD,2022-08-31 14:00:01,15.08877738,0.0001446,53.2168,32.6778,81.9081,146.3217,-0.0026506999999999,-0.0004227,0.0,0 STARLINK-3667,1 51999U 22025AV  22243.58334491 -.00042270  00000-0 -26507-2 0  9993,2 51999  53.2168  32.6778 0001446  81.9081 146.3217 15.08877738  1307,6917.765,95.435,540.63,538.63,0.0
51999.0,STARLINK-3667,PAYLOAD,2022-08-31 22:00:00,15.08834279,0.0001371,53.2167,31.1822,72.6484,167.2078,0.00091745,0.00014341,0.0,0 STARLINK-3667,1 51999U 22025AV  22243.91667824  .00014341  00000-0  91745-3 0  9992,2 51999  53.2167  31.1822 0001371  72.6484 167.2078 15.08834279 28322,6917.898,95.438,540.711,538.814,0.0
51999.0,STARLINK-3667,PAYLOAD,2022-09-01 14:00:01,15.08863913,0.0001349,53.2171,28.1887,78.0751,185.0335,-0.0017807,-0.00028534,0.0,0 STARLINK-3667,1 51999U 22025AV  22244.58335648 -.00028534  00000-0 -17807-2 0  9999,2 51999  53.2171  28.1887 0001349  78.0751 185.0335 15.08863913  1306,6917.807,95.436,540.606,538.739,0.0
51999.0,STARLINK-3667,PAYLOAD,2022-09-01 22:00:00,15.08840229,0.0001281999999999,53.217,26.693,69.0987,205.5578,-0.0006749,-0.00011013,0.0,0 STARLINK-3667,1 51999U 22025AV  22244.91667824 -.00011013  00000-0 -67490-3 0  9998,2 51999  53.2170  26.6930 0001282  69.0987 205.5578 15.08840229 28473,6917.88,95.438,540.632,538.8580000000002,0.0
51999.0,STARLINK-3667,PAYLOAD,2022-09-02 14:00:01,15.08849419,0.000127,53.2175,23.6998,73.9001,223.931,-0.0012200999999999,-0.00019658,0.0,0 STARLINK-3667,1 51999U 22025AV  22245.58334491 -.00019658  00000-0 -12201-2 0  9995,2 51999  53.2175  23.6998 0001270  73.9001 223.9310 15.08849419  1308,6917.852,95.437,540.595,538.8380000000002,0.0
51999.0,STARLINK-3667,PAYLOAD,2022-09-02 22:00:01,15.08842312,0.000127,53.2174,22.2039,66.9633,242.5242,0.00060127,9.295e-05,0.0,0 STARLINK-3667,1 51999U 22025AV  22245.91668981  .00009295  00000-0  60127-3 0  9991,2 51999  53.2174  22.2039 0001270  66.9633 242.5242 15.08842312  1307,6917.873000000001,95.437,540.617,538.86,0.0
51999.0,STARLINK-3667,PAYLOAD,2022-09-03 12:00:00,15.08836877,0.0001384,53.2179,19.5844,77.4793,162.2241,-0.0010715,-0.00017299,0.0,0 STARLINK-3667,1 51999U 22025AV  22246.50001157 -.00017299  00000-0 -10715-2 0  9995,2 51999  53.2179  19.5844 0001384  77.4793 162.2241 15.08836877 28715,6917.89,95.438,540.712,538.797,0.0
51999.0,STARLINK-3667,PAYLOAD,2022-09-03 14:00:01,15.08835327,0.0001405,53.2178,19.2108,73.7749,258.8252,-0.0011619,-0.00018729,0.0,0 STARLINK-3667,1 51999U 22025AV  22246.58334491 -.00018729  00000-0 -11619-2 0  9996,2 51999  53.2178  19.2108 0001405  73.7749 258.8252 15.08835327  1307,6917.895,95.438,540.732,538.788,0.0
51999.0,STARLINK-3667,PAYLOAD,2022-09-03 22:00:00,15.08840052,0.000138,53.2175,17.7147,67.862,276.3217,0.00030513,4.572e-05,0.0,0 STARLINK-3667,1 51999U 22025AV  22246.91667824  .00004572  00000-0  30513-3 0  9996,2 51999  53.2175  17.7147 0001380  67.8620 276.3217 15.08840052  1301,6917.88,95.438,540.7,538.7909999999998,0.0
51999.0,STARLINK-3667,PAYLOAD,2022-09-04 06:00:00,15.08822588,0.0001295,53.2178,16.2168,78.8821,276.911,0.0037583,0.00060006,0.0,0 STARLINK-3667,1 51999U 22025AV  22247.25001157  .00060006  00000-0  37583-2 0  9992,2 51999  53.2178  16.2168 0001295  78.8821 276.9110 15.08822588 28829,6917.934,95.439,540.694,538.903,0.0
51999.0,STARLINK-3667,PAYLOAD,2022-09-04 14:00:01,15.0883914,0.0001486,53.2178,14.7218,73.9433,293.4771,-0.00092627,-0.00014999,0.0,0 STARLINK-3667,1 51999U 22025AV  22247.58335648 -.00014999  00000-0 -92627-3 0  9996,2 51999  53.2178  14.7218 0001486  73.9433 293.4771 15.08839140 28879,6917.8830000000025,95.438,540.776,538.72,0.0
51999.0,STARLINK-3667,PAYLOAD,2022-09-04 20:00:01,15.08827095,0.0001475,53.2176,13.6001,68.5586,217.5025,0.0033811,0.00053915,0.0,0 STARLINK-3667,1 51999U 22025AV  22247.83334491  .00053915  00000-0  33811-2 0  9997,2 51999  53.2176  13.6001 0001475  68.5586 217.5025 15.08827095  1306,6917.92,95.438,540.805,538.764,0.0
51999.0,STARLINK-3667,PAYLOAD,2022-09-05 04:00:00,15.08841239,0.0001358,53.2177,12.102,77.7177,219.9577,0.0033678,0.00053721,0.0,0 STARLINK-3667,1 51999U 22025AV  22248.16667824  .00053721  00000-0  33678-2 0  9999,2 51999  53.2177  12.1020 0001358  77.7177 219.9577 15.08841239 28965,6917.877,95.437,540.681,538.802,0.0
51999.0,STARLINK-3667,PAYLOAD,2022-09-05 12:00:00,15.08902774,0.0001365999999999,53.2177,10.6063,76.5005,232.7844,-0.0040942,-0.0006497,0.0,0 STARLINK-3667,1 51999U 22025AV  22248.50001157 -.00064970  00000-0 -40942-2 0  9990,2 51999  53.2177  10.6063 0001366  76.5005 232.7844 15.08902774 29010,6917.689,95.434,540.498,538.609,0.0
51999.0,STARLINK-3667,PAYLOAD,2022-09-05 14:00:01,15.08895657,0.0001411,53.2175,10.2327,72.6075,329.5916,-0.0044883999999999,-0.00071124,0.0,0 STARLINK-3667,1 51999U 22025AV  22248.58334491 -.00071124  00000-0 -44884-2 0  9996,2 51999  53.2175  10.2327 0001411  72.6075 329.5916 15.08895657  1300,6917.71,95.434,540.5509999999998,538.599,0.0
